start=new Date('2022-06-25T00:00:00.000Z').valueOf();
sats=[{"REV_AT_EPOCH":"9542","INCLINATION":"53.0553","PERIOD":"95.592","RA_OF_ASC_NODE":"134.9759","MEAN_ELEMENT_THEORY":"SGP4","TLE_LINE1":"1 46537U 20070F   22175.68343603 -.00001249  00000-0 -64977-4 0  9999","TIME_SYSTEM":"UTC","LAUNCH_DATE":"2020-10-06","MEAN_MOTION_DOT":"-0.00001249","RCS_SIZE":"LARGE","EPOCH":"2022-06-24T16:24:08.872992","PERIAPSIS":"546.030","ARG_OF_PERICENTER":"66.2258","FILE":"3501798","OBJECT_TYPE":"PAYLOAD","ECCENTRICITY":"0.00017010","MEAN_MOTION":"15.06401655","SITE":"AFETR","OBJECT_NAME":"STARLINK-1672","EPHEMERIS_TYPE":"0","DECAY_DATE":null,"APOAPSIS":"548.386","COUNTRY_CODE":"US","BSTAR":"-0.00006497700000","ELEMENT_SET_NO":"999","OBJECT_ID":"2020-070F","CLASSIFICATION_TYPE":"U","NORAD_CAT_ID":"46537","MEAN_ANOMALY":"293.8909","CENTER_NAME":"EARTH","SEMIMAJOR_AXIS":"6925.343","TLE_LINE2":"2 46537  53.0553 134.9759 0001701  66.2258 293.8909 15.06401655 95427","GP_ID":"206785123","MEAN_MOTION_DDOT":"0.0000000000000","REF_FRAME":"TEME"},{"ECCENTRICITY":"0.00020520","MEAN_MOTION":"15.06392639","OBJECT_TYPE":"PAYLOAD","OBJECT_NAME":"STARLINK-1678","DECAY_DATE":null,"EPHEMERIS_TYPE":"0","SITE":"AFETR","LAUNCH_DATE":"2020-10-06","TIME_SYSTEM":"UTC","MEAN_MOTION_DOT":"0.00000788","INCLINATION":"53.0548","REV_AT_EPOCH":"9544","TLE_LINE1":"1 46538U 20070G   22175.86036823  .00000788  00000-0  71812-4 0  9994","PERIOD":"95.593","RA_OF_ASC_NODE":"134.1905","MEAN_ELEMENT_THEORY":"SGP4","ARG_OF_PERICENTER":"63.8880","PERIAPSIS":"545.815","FILE":"3501798","RCS_SIZE":"LARGE","EPOCH":"2022-06-24T20:38:55.815072","CENTER_NAME":"EARTH","REF_FRAME":"TEME","TLE_LINE2":"2 46538  53.0548 134.1905 0002052  63.8880 296.2320 15.06392639 95448","SEMIMAJOR_AXIS":"6925.371","MEAN_MOTION_DDOT":"0.0000000000000","GP_ID":"206785373","CLASSIFICATION_TYPE":"U","COUNTRY_CODE":"US","APOAPSIS":"548.657","OBJECT_ID":"2020-070G","BSTAR":"0.00007181200000","ELEMENT_SET_NO":"999","MEAN_ANOMALY":"296.2320","NORAD_CAT_ID":"46538"},{"MEAN_ANOMALY":"287.2465","NORAD_CAT_ID":"46541","CLASSIFICATION_TYPE":"U","BSTAR":"0.00006882900000","ELEMENT_SET_NO":"999","OBJECT_ID":"2020-070K","APOAPSIS":"548.304","COUNTRY_CODE":"US","REF_FRAME":"TEME","GP_ID":"206755466","MEAN_MOTION_DDOT":"0.0000000000000","SEMIMAJOR_AXIS":"6925.348","TLE_LINE2":"2 46541  53.0546 116.9756 0001575  72.8697 287.2465 15.06400207 95639","CENTER_NAME":"EARTH","FILE":"3501501","PERIAPSIS":"546.122","ARG_OF_PERICENTER":"72.8697","EPOCH":"2022-06-24T05:49:51.871008","RCS_SIZE":"LARGE","MEAN_MOTION_DOT":"0.00000744","LAUNCH_DATE":"2020-10-06","TIME_SYSTEM":"UTC","PERIOD":"95.592","MEAN_ELEMENT_THEORY":"SGP4","RA_OF_ASC_NODE":"116.9756","TLE_LINE1":"1 46541U 20070K   22175.24296147  .00000744  00000-0  68829-4 0  9993","REV_AT_EPOCH":"9563","INCLINATION":"53.0546","EPHEMERIS_TYPE":"0","DECAY_DATE":null,"OBJECT_NAME":"STARLINK-1687","SITE":"AFETR","MEAN_MOTION":"15.06400207","ECCENTRICITY":"0.00015750","OBJECT_TYPE":"PAYLOAD"},{"OBJECT_TYPE":"PAYLOAD","ECCENTRICITY":"0.00019650","MEAN_MOTION":"15.06397420","SITE":"AFETR","OBJECT_NAME":"STARLINK-1692","DECAY_DATE":null,"EPHEMERIS_TYPE":"0","INCLINATION":"53.0547","REV_AT_EPOCH":"9536","TLE_LINE1":"1 46542U 20070L   22175.31115947 -.00001371  00000-0 -73166-4 0  9999","RA_OF_ASC_NODE":"136.6605","PERIOD":"95.592","MEAN_ELEMENT_THEORY":"SGP4","TIME_SYSTEM":"UTC","LAUNCH_DATE":"2020-10-06","MEAN_MOTION_DOT":"-0.00001371","RCS_SIZE":"LARGE","EPOCH":"2022-06-24T07:28:04.178208","ARG_OF_PERICENTER":"59.5512","PERIAPSIS":"545.861","FILE":"3501501","CENTER_NAME":"EARTH","TLE_LINE2":"2 46542  53.0547 136.6605 0001965  59.5512 300.5671 15.06397420 95364","SEMIMAJOR_AXIS":"6925.356","MEAN_MOTION_DDOT":"0.0000000000000","GP_ID":"206753215","REF_FRAME":"TEME","COUNTRY_CODE":"US","APOAPSIS":"548.582","OBJECT_ID":"2020-070L","BSTAR":"-0.00007316600000","ELEMENT_SET_NO":"999","CLASSIFICATION_TYPE":"U","NORAD_CAT_ID":"46542","MEAN_ANOMALY":"300.5671"},{"MEAN_ANOMALY":"303.0845","NORAD_CAT_ID":"46543","CLASSIFICATION_TYPE":"U","COUNTRY_CODE":"US","APOAPSIS":"548.661","OBJECT_ID":"2020-070M","BSTAR":"0.00001148500000","ELEMENT_SET_NO":"999","REF_FRAME":"TEME","TLE_LINE2":"2 46543  53.0536 135.2312 0002055  57.0341 303.0845 15.06391942 95417","SEMIMAJOR_AXIS":"6925.373","MEAN_MOTION_DDOT":"0.0000000000000","GP_ID":"206784623","CENTER_NAME":"EARTH","ARG_OF_PERICENTER":"57.0341","PERIAPSIS":"545.815","FILE":"3501798","RCS_SIZE":"LARGE","EPOCH":"2022-06-24T15:04:32.191104","LAUNCH_DATE":"2020-10-06","TIME_SYSTEM":"UTC","MEAN_MOTION_DOT":"-0.00000111","INCLINATION":"53.0536","REV_AT_EPOCH":"9541","TLE_LINE1":"1 46543U 20070M   22175.62815036 -.00000111  00000-0  11485-4 0  9996","PERIOD":"95.593","MEAN_ELEMENT_THEORY":"SGP4","RA_OF_ASC_NODE":"135.2312","OBJECT_NAME":"STARLINK-1693","DECAY_DATE":null,"EPHEMERIS_TYPE":"0","SITE":"AFETR","ECCENTRICITY":"0.00020550","MEAN_MOTION":"15.06391942","OBJECT_TYPE":"PAYLOAD"},{"MEAN_MOTION":"15.06404859","ECCENTRICITY":"0.00021580","OBJECT_TYPE":"PAYLOAD","EPHEMERIS_TYPE":"0","DECAY_DATE":null,"OBJECT_NAME":"STARLINK-1694","SITE":"AFETR","MEAN_MOTION_DOT":"-0.00000302","TIME_SYSTEM":"UTC","LAUNCH_DATE":"2020-10-06","RA_OF_ASC_NODE":"120.5683","PERIOD":"95.592","MEAN_ELEMENT_THEORY":"SGP4","TLE_LINE1":"1 46544U 20070N   22175.55766367 -.00000302  00000-0 -13869-5 0  9993","REV_AT_EPOCH":"9561","INCLINATION":"53.0559","FILE":"3501798","PERIAPSIS":"545.704","ARG_OF_PERICENTER":"65.8237","EPOCH":"2022-06-24T13:23:02.141088","RCS_SIZE":"LARGE","CENTER_NAME":"EARTH","REF_FRAME":"TEME","GP_ID":"206784873","MEAN_MOTION_DDOT":"0.0000000000000","SEMIMAJOR_AXIS":"6925.334","TLE_LINE2":"2 46544  53.0559 120.5683 0002158  65.8237 294.2977 15.06404859 95617","CLASSIFICATION_TYPE":"U","BSTAR":"-0.00000138690000","ELEMENT_SET_NO":"999","OBJECT_ID":"2020-070N","APOAPSIS":"548.693","COUNTRY_CODE":"US","MEAN_ANOMALY":"294.2977","NORAD_CAT_ID":"46544"},{"RCS_SIZE":"LARGE","EPOCH":"2022-06-24T14:22:05.203776","ARG_OF_PERICENTER":"59.4713","PERIAPSIS":"546.084","FILE":"3501798","INCLINATION":"53.0532","REV_AT_EPOCH":"9540","TLE_LINE1":"1 46545U 20070P   22175.59867134  .00000074  00000-0  23906-4 0  9998","PERIOD":"95.593","RA_OF_ASC_NODE":"135.3788","MEAN_ELEMENT_THEORY":"SGP4","LAUNCH_DATE":"2020-10-06","TIME_SYSTEM":"UTC","MEAN_MOTION_DOT":"0.00000074","SITE":"AFETR","OBJECT_NAME":"STARLINK-1696","DECAY_DATE":null,"EPHEMERIS_TYPE":"0","OBJECT_TYPE":"PAYLOAD","ECCENTRICITY":"0.00016920","MEAN_MOTION":"15.06386177","NORAD_CAT_ID":"46545","MEAN_ANOMALY":"300.6442","COUNTRY_CODE":"US","APOAPSIS":"548.428","OBJECT_ID":"2020-070P","ELEMENT_SET_NO":"999","BSTAR":"0.00002390600000","CLASSIFICATION_TYPE":"U","TLE_LINE2":"2 46545  53.0532 135.3788 0001692  59.4713 300.6442 15.06386177 95407","SEMIMAJOR_AXIS":"6925.391","MEAN_MOTION_DDOT":"0.0000000000000","GP_ID":"206786125","REF_FRAME":"TEME","CENTER_NAME":"EARTH"},{"REV_AT_EPOCH":"9540","INCLINATION":"53.0549","PERIOD":"95.593","MEAN_ELEMENT_THEORY":"SGP4","RA_OF_ASC_NODE":"135.4323","TLE_LINE1":"1 46546U 20070Q   22175.58391873 -.00000094  00000-0  12639-4 0  9994","TIME_SYSTEM":"UTC","LAUNCH_DATE":"2020-10-06","MEAN_MOTION_DOT":"-0.00000094","RCS_SIZE":"LARGE","EPOCH":"2022-06-24T14:00:50.578272","PERIAPSIS":"545.797","ARG_OF_PERICENTER":"49.8894","FILE":"3501798","OBJECT_TYPE":"PAYLOAD","ECCENTRICITY":"0.00020740","MEAN_MOTION":"15.06393682","SITE":"AFETR","OBJECT_NAME":"STARLINK-1697","EPHEMERIS_TYPE":"0","DECAY_DATE":null,"APOAPSIS":"548.669","COUNTRY_CODE":"US","ELEMENT_SET_NO":"999","BSTAR":"0.00001263900000","OBJECT_ID":"2020-070Q","CLASSIFICATION_TYPE":"U","NORAD_CAT_ID":"46546","MEAN_ANOMALY":"310.2276","CENTER_NAME":"EARTH","SEMIMAJOR_AXIS":"6925.368","TLE_LINE2":"2 46546  53.0549 135.4323 0002074  49.8894 310.2276 15.06393682 95401","GP_ID":"206786376","MEAN_MOTION_DDOT":"0.0000000000000","REF_FRAME":"TEME"},{"OBJECT_TYPE":"PAYLOAD","ECCENTRICITY":"0.00017290","MEAN_MOTION":"15.06385703","SITE":"AFETR","OBJECT_NAME":"STARLINK-1698","DECAY_DATE":null,"EPHEMERIS_TYPE":"0","INCLINATION":"53.0547","REV_AT_EPOCH":"9541","TLE_LINE1":"1 46547U 20070R   22175.61247070  .00000179  00000-0  30908-4 0  9990","MEAN_ELEMENT_THEORY":"SGP4","PERIOD":"95.593","RA_OF_ASC_NODE":"135.2972","TIME_SYSTEM":"UTC","LAUNCH_DATE":"2020-10-06","MEAN_MOTION_DOT":"0.00000179","RCS_SIZE":"LARGE","EPOCH":"2022-06-24T14:41:57.468480","ARG_OF_PERICENTER":"52.3856","PERIAPSIS":"546.060","FILE":"3501798","CENTER_NAME":"EARTH","TLE_LINE2":"2 46547  53.0547 135.2972 0001729  52.3856 307.7289 15.06385703 95412","SEMIMAJOR_AXIS":"6925.392","MEAN_MOTION_DDOT":"0.0000000000000","GP_ID":"206786377","REF_FRAME":"TEME","COUNTRY_CODE":"US","APOAPSIS":"548.455","OBJECT_ID":"2020-070R","ELEMENT_SET_NO":"999","BSTAR":"0.00003090800000","CLASSIFICATION_TYPE":"U","NORAD_CAT_ID":"46547","MEAN_ANOMALY":"307.7289"},{"SITE":"AFETR","OBJECT_NAME":"STARLINK-1699","DECAY_DATE":null,"EPHEMERIS_TYPE":"0","OBJECT_TYPE":"PAYLOAD","ECCENTRICITY":"0.00016750","MEAN_MOTION":"15.06417140","RCS_SIZE":"LARGE","EPOCH":"2022-06-24T14:59:11.951232","ARG_OF_PERICENTER":"63.3104","PERIAPSIS":"546.001","FILE":"3501798","INCLINATION":"53.0536","REV_AT_EPOCH":"9541","TLE_LINE1":"1 46548U 20070S   22175.62444388  .00002273  00000-0  17134-3 0  9995","RA_OF_ASC_NODE":"135.2572","PERIOD":"95.591","MEAN_ELEMENT_THEORY":"SGP4","LAUNCH_DATE":"2020-10-06","TIME_SYSTEM":"UTC","MEAN_MOTION_DOT":"0.00002273","TLE_LINE2":"2 46548  53.0536 135.2572 0001675  63.3104 296.8056 15.06417140 95416","SEMIMAJOR_AXIS":"6925.296","MEAN_MOTION_DDOT":"0.0000000000000","GP_ID":"206785374","REF_FRAME":"TEME","CENTER_NAME":"EARTH","NORAD_CAT_ID":"46548","MEAN_ANOMALY":"296.8056","COUNTRY_CODE":"US","APOAPSIS":"548.321","OBJECT_ID":"2020-070S","BSTAR":"0.00017134000000","ELEMENT_SET_NO":"999","CLASSIFICATION_TYPE":"U"}];
